STARLINK-3130           
1 49437U 21104AF  23157.11762851  .00001169  00000+0  91499-4 0  9996
2 49437  53.2185  52.2838 0001156  98.6095 261.5028 15.08853187 87871
STARLINK-3044           
1 49438U 21104AG  23156.71010794 -.00000546  00000+0 -16195-4 0  9994
2 49438  53.2179  54.0465 0001257  79.8631 280.2503 15.08840033 86747
STARLINK-3108           
1 49439U 21104AH  23157.09651208  .00001215  00000+0  94359-4 0  9998
2 49439  53.2179  52.3885 0001181 110.7972 249.3147 15.08847730 87892
STARLINK-3105           
1 49440U 21104AJ  23156.84531612 -.00000361  00000+0 -46098-5 0  9999
2 49440  53.2178  53.5087 0001074  89.9527 270.1588 15.08844657 86765
STARLINK-3128           
1 49441U 21104AK  23157.09186993 -.00001006  00000+0 -45128-4 0  9995
2 49441  53.2170  52.4040 0001208  97.5275 262.5854 15.08840014 87887
STARLINK-3098           
1 49442U 21104AL  23156.84164030  .00000181  00000+0  29436-4 0  9991
2 49442  53.2174  53.5233 0001050  95.1112 265.0000 15.08838752 86760
STARLINK-3136           
1 49443U 21104AM  23157.08819193  .00000368  00000+0  41198-4 0  9992
2 49443  53.2173  52.4185 0000960  94.2105 265.8997 15.08849281 87870
STARLINK-3126           
1 49444U 21104AN  23156.83892150 -.00000143  00000+0  90857-5 0  9998
2 49444  53.2175  53.5454 0000988  97.3923 262.7181 15.08838455 86765
STARLINK-3122           
1 49445U 21104AP  23157.11671232  .00002666  00000+0  18548-3 0  9993
2 49445  53.2166  62.2898 0001012  98.7763 261.3344 15.08850492 87741
STARLINK-3099           
1 49446U 21104AQ  23157.09923581  .00004571  00000+0  30500-3 0  9997
2 49446  53.2172  52.3687 0001103  93.8717 266.2401 15.08853228 87873
STARLINK-3115           
1 49447U 21104AR  23157.10935486  .00001098  00000+0  87062-4 0  9994
2 49447  53.2172  62.3264 0001261  85.0822 275.0314 15.08842760 87736
STARLINK-3097           
1 49448U 21104AS  23157.12503605  .00000847  00000+0  71313-4 0  9994
2 49448  53.2175  62.3028 0001136  97.2366 262.8755 15.08846272 87732
STARLINK-3137           
1 49449U 21104AT  23156.84072474 -.00001137  00000+0 -53392-4 0  9990
2 49449  53.2166  63.5310 0001617  99.7763 260.3411 15.08832875 86625
STARLINK-3127           
1 49450U 21104AU  23157.04775435  .00001329  00000+0  10159-3 0  9996
2 49450  53.2164  62.6097 0001204  93.9773 266.1357 15.08843563 87727
STARLINK-3125           
1 49451U 21104AV  23156.83704277 -.00000054  00000+0  14697-4 0  9996
2 49451  53.2171  63.5455 0001071  95.8836 264.2278 15.08832789 86624
STARLINK-3150           
1 49452U 21104AW  23157.02471960 -.00001077  00000+0 -49554-4 0  9996
2 49452  53.2185  62.7316 0001369  88.5331 271.5818 15.08843368 87735
STARLINK-3129           
1 49453U 21104AX  23156.83800939 -.00001461  00000+0 -73744-4 0  9992
2 49453  53.2173  63.6280 0001175  89.9942 270.1185 15.08835582 86629
STARLINK-3160           
1 49454U 21104AY  23157.09830870 -.00001536  00000+0 -78394-4 0  9998
2 49454  53.2190  62.3789 0001397  97.7764 262.3387 15.08854985 87743
STARLINK-3145           
1 49455U 21104AZ  23156.81864089 -.00000408  00000+0 -75348-5 0  9991
2 49455  53.2171  63.6256 0001401 107.2549 252.8597 15.08834527 86623
STARLINK-3124           
1 49456U 21104BA  23157.02935577  .00000744  00000+0  64809-4 0  9997
2 49456  53.2180  62.7308 0001085  83.9884 276.1232 15.08844795 87727
STARLINK-3132           
1 49457U 21104BB  23156.81592063 -.00000430  00000+0 -89325-5 0  9998
2 49457  53.2174  63.6483 0001336  97.2317 262.8827 15.08835940 86625
STARLINK-3156           
1 49458U 21104BC  23156.95480204 -.00001786  00000+0 -94187-4 0  9993
2 49458  53.2174  63.0181 0001220  95.0980 265.0151 15.08836586 87723
STARLINK-3141           
1 49459U 21104BD  23157.07623545  .00001031  00000+0  82858-4 0  9998
2 49459  53.2175  62.4706 0001266  96.3429 263.7708 15.08844826 87733
STARLINK-3140           
1 49460U 21104BE  23157.00631059 -.00001680  00000+0 -87443-4 0  9999
2 49460  53.2182  62.7840 0001196  94.0143 266.0986 15.08860039 87733
GLOBAL-14               
1 49469U 21106A   23156.66073138  .00023673  00000+0  47868-3 0  9999
2 49469  42.0125 286.7981 0009615 343.9514  16.1023 15.45907080 87376
GLOBAL-15               
1 49470U 21106B   23156.79162664  .00017872  00000+0  48753-3 0  9996
2 49470  42.0100 317.6930 0011228 325.4192  34.5916 15.37023454 87032
GAOFEN 11-03            
1 49492U 21107A   23157.22275250  .00006998  00000+0  29521-3 0  9995
2 49492  97.3715 216.3051 0005725 277.8438  82.2149 15.23590799 86086
GAOFEN 3-02             
1 49495U 21109A   23157.19118050  .00000059  00000+0  31147-4 0  9990
2 49495  98.4127 164.7170 0002046  72.5123 287.6291 14.42211591 80757
SHIYAN 11 (SY-11)       
1 49501U 21112A   23157.17458277  .00010386  00000+0  35690-3 0  9998
2 49501  97.4386 170.5597 0012093  98.7781 261.4830 15.30227122 85122
COSMOS 2552             
1 49503U 21113A   23155.82816781 -.00001032  00000+0  00000+0 0  9991
2 49503  63.4639 323.8430 6945132 270.4695  17.1586  2.00616626 11177
CHINASAT 1D (ZX 1D)     
1 49505U 21114A   23156.91866646 -.00000326  00000+0  00000+0 0  9995
2 49505   0.5738 274.2126 0001823 236.7819 203.9427  1.00268354  5711
STARLINK-3219           
1 49724U 21115A   23157.05418882  .00008498  00000+0  55103-3 0  9995
2 49724  53.2162 352.5730 0000912  94.0767 266.0330 15.08861483 84520
STARLINK-3218           
1 49725U 21115B   23156.76620983 -.00000345  00000+0 -36273-5 0  9994
2 49725  53.2177 353.9684 0001056  96.8588 263.2524 15.08838333 83375
STARLINK-3237           
1 49726U 21115C   23156.84991341  .00000835  00000+0  70517-4 0  9993
2 49726  53.2184   3.4874 0001195  88.8746 271.2383 15.08846927 83249
STARLINK-3242           
1 49727U 21115D   23156.78735937 -.00000429  00000+0 -88471-5 0  9994
2 49727  53.2180   3.7687 0001104  93.5198 266.5920 15.08838284 83235
STARLINK-3240           
1 49728U 21115E   23156.98975407  .00000840  00000+0  70841-4 0  9991
2 49728  53.2176   2.8621 0000975  89.3573 270.7531 15.08844493 84374
STARLINK-3251           
1 49729U 21115F   23156.99438647 -.00002047  00000+0 -11049-3 0  9990
2 49729  53.2176   2.8503 0001011  85.9678 274.1430 15.08858743 84373
STARLINK-3249           
1 49730U 21115G   23157.00174771  .00001286  00000+0  98820-4 0  9995
2 49730  53.2173   2.8150 0000977  80.9421 279.1682 15.08849481 84374
STARLINK-3228           
1 49731U 21115H   23156.99711397  .00002528  00000+0  17681-3 0  9999
2 49731  53.2167   2.8258 0001250  83.4285 276.6849 15.08849689 84375
STARLINK-3246           
1 49732U 21115J   23156.81038954  .00000338  00000+0  39326-4 0  9990
2 49732  53.2175   3.6377 0001006  87.9472 272.1635 15.08843173 83232
STARLINK-3252           
1 49733U 21115K   23156.87199527 -.00001882  00000+0 -10022-3 0  9999
2 49733  53.2169   3.3914 0001019  88.0622 272.0487 15.08840946 83243
STARLINK-3238           
1 49734U 21115L   23156.75884028 -.00000023  00000+0  16639-4 0  9990
2 49734  53.2175 353.9258 0000971  87.2255 272.8848 15.08840708 83374
STARLINK-3113           
1 49735U 21115M   23157.00542921  .00000333  00000+0  38997-4 0  9997
2 49735  53.2167   2.7609 0001045  87.4960 272.6152 15.08844275 84373
STARLINK-3148           
1 49736U 21115N   23156.83339452  .00000789  00000+0  67635-4 0  9997
2 49736  53.2168 353.5720 0000770  74.9845 285.1232 15.08844507 83389
STARLINK-3225           
1 49737U 21115P   23156.82875821  .00001560  00000+0  11609-3 0  9999
2 49737  53.2175 353.5827 0001235  89.0964 271.0169 15.08842831 83383
STARLINK-3143           
1 49738U 21115Q   23157.03479344  .00006102  00000+0  40067-3 0  9991
2 49738  53.2170 352.6602 0000787  92.6304 267.4778 15.08884791 84522
STARLINK-3155           
1 49739U 21115R   23156.94927461  .00003047  00000+0  20939-3 0  9990
2 49739  53.2178   3.0430 0001139  99.5576 260.5545 15.08848136 84367
STARLINK-3226           
1 49740U 21115S   23156.91067004  .00000428  00000+0  44974-4 0  9993
2 49740  53.2185 353.1900 0001103  95.2835 264.8283 15.08842959 83395
STARLINK-3244           
1 49741U 21115T   23156.97323017  .00001159  00000+0  90873-4 0  9990
2 49741  53.2171 352.9432 0001018  91.3383 268.7726 15.08845062 84516
STARLINK-3202           
1 49742U 21115U   23157.05323038  .00001393  00000+0  10559-3 0  9996
2 49742  53.2177 352.5771 0001133  88.4139 271.6983 15.08849409 84527
STARLINK-3239           
1 49743U 21115V   23157.03578071  .00000465  00000+0  47260-4 0  9993
2 49743  53.2173 352.5896 0001104  87.0667 273.0451 15.08845926 84527
STARLINK-3231           
1 49744U 21115W   23156.85178125 -.00001818  00000+0 -96164-4 0  9991
2 49744  53.2172 353.3781 0001037  96.8106 263.3004 15.08848269 84495
STARLINK-3241           
1 49745U 21115X   23156.91435005  .00000956  00000+0  78111-4 0  9994
2 49745  53.2184 353.1705 0001051  88.8493 271.2620 15.08845062 84501
STARLINK-3233           
1 49746U 21115Y   23157.00171563  .00003142  00000+0  21536-3 0  9990
2 49746  53.2158 352.8108 0001123  79.1815 280.9303 15.08849836 84516
STARLINK-3247           
1 49747U 21115Z   23156.99067409  .00001786  00000+0  13024-3 0  9996
2 49747  53.2172 352.8585 0001076  86.7658 273.3457 15.08846950 84518
STARLINK-3248           
1 49748U 21115AA  23157.00907159  .00000840  00000+0  70853-4 0  9999
2 49748  53.2180 352.7734 0000941  98.6154 261.4945 15.08848483 84520
STARLINK-3250           
1 49749U 21115AB  23156.86555386 -.00000651  00000+0 -22820-4 0  9997
2 49749  53.2163 353.4215 0000950  87.9474 272.1627 15.08839416 83385
STARLINK-3236           
1 49750U 21115AC  23156.81866937  .00001065  00000+0  84949-4 0  9999
2 49750  53.2178 353.6387 0001026  84.1697 275.9412 15.08849784 83388
STARLINK-3229           
1 49751U 21115AD  23157.00266973  .00001100  00000+0  87142-4 0  9994
2 49751  53.2175 352.7736 0001093 100.7409 259.3706 15.08845945 84528
